[{"OBJECT_NAME":"HELIOS 1B","OBJECT_ID":"1999-064A","EPOCH":"2026-04-12T16:16:21.164736","MEAN_MOTION":14.87832245,"ECCENTRICITY":9.92e-5,"INCLINATION":98.166,"RA_OF_ASC_NODE":5.9156,"ARG_OF_PERICENTER":36.9278,"MEAN_ANOMALY":323.2006,"EPHEMERIS_TYPE":0,"CLASSIFICATION_TYPE":"U","NORAD_CAT_ID":25977,"ELEMENT_SET_NO":999,"REV_AT_EPOCH":69031,"BSTAR":0.00012107,"MEAN_MOTION_DOT":1.048e-5,"MEAN_MOTION_DDOT":0},{"OBJECT_NAME":"TERRA","OBJECT_ID":"1999-068A","EPOCH":"2026-04-12T19:58:31.798272","MEAN_MOTION":14.61051665,"ECCENTRICITY":0.0003631,"INCLINATION":97.9524,"RA_OF_ASC_NODE":154.9504,"ARG_OF_PERICENTER":82.4904,"MEAN_ANOMALY":37.6482,"EPHEMERIS_TYPE":0,"CLASSIFICATION_TYPE":"U","NORAD_CAT_ID":25994,"ELEMENT_SET_NO":999,"REV_AT_EPOCH":40006,"BSTAR":6.3119e-5,"MEAN_MOTION_DOT":2.66e-6,"MEAN_MOTION_DDOT":0},{"OBJECT_NAME":"SL-16 R/B","OBJECT_ID":"2000-006B","EPOCH":"2026-04-12T12:01:40.459008","MEAN_MOTION":14.15830211,"ECCENTRICITY":0.0014818,"INCLINATION":71.0047,"RA_OF_ASC_NODE":26.7409,"ARG_OF_PERICENTER":136.1439,"MEAN_ANOMALY":224.0863,"EPHEMERIS_TYPE":0,"CLASSIFICATION_TYPE":"U","NORAD_CAT_ID":26070,"ELEMENT_SET_NO":999,"REV_AT_EPOCH":35334,"BSTAR":-0.00010434,"MEAN_MOTION_DOT":-2.53e-6,"MEAN_MOTION_DDOT":0},{"OBJECT_NAME":"TITAN 4B R/B","OBJECT_ID":"2000-047B","EPOCH":"2026-04-12T19:34:44.426208","MEAN_MOTION":15.0985823,"ECCENTRICITY":0.0041188,"INCLINATION":67.9887,"RA_OF_ASC_NODE":304.5282,"ARG_OF_PERICENTER":355.9524,"MEAN_ANOMALY":4.1285,"EPHEMERIS_TYPE":0,"CLASSIFICATION_TYPE":"U","NORAD_CAT_ID":26474,"ELEMENT_SET_NO":999,"REV_AT_EPOCH":39806,"BSTAR":0.00011802,"MEAN_MOTION_DOT":1.812e-5,"MEAN_MOTION_DDOT":0},{"OBJECT_NAME":"ENVISAT","OBJECT_ID":"2002-009A","EPOCH":"2026-04-12T21:10:36.577056","MEAN_MOTION":14.39049075,"ECCENTRICITY":0.0001155,"INCLINATION":98.3781,"RA_OF_ASC_NODE":55.6778,"ARG_OF_PERICENTER":83.4192,"MEAN_ANOMALY":294.343,"EPHEMERIS_TYPE":0,"CLASSIFICATION_TYPE":"U","NORAD_CAT_ID":27386,"ELEMENT_SET_NO":999,"REV_AT_EPOCH":26409,"BSTAR":3.3055e-5,"MEAN_MOTION_DOT":5.9e-7,"MEAN_MOTION_DDOT":0},{"OBJECT_NAME":"IDEFIX & ARIANE 42P R/B","OBJECT_ID":"2002-021B","EPOCH":"2026-04-12T19:49:49.276128","MEAN_MOTION":14.3104993,"ECCENTRICITY":0.0012976,"INCLINATION":98.5905,"RA_OF_ASC_NODE":41.0329,"ARG_OF_PERICENTER":86.9242,"MEAN_ANOMALY":273.3425,"EPHEMERIS_TYPE":0,"CLASSIFICATION_TYPE":"U","NORAD_CAT_ID":27422,"ELEMENT_SET_NO":999,"REV_AT_EPOCH":24890,"BSTAR":7.6645e-5,"MEAN_MOTION_DOT":1.58e-6,"MEAN_MOTION_DDOT":0},{"OBJECT_NAME":"AQUA","OBJECT_ID":"2002-022A","EPOCH":"2026-04-12T21:31:59.151360","MEAN_MOTION":14.62056446,"ECCENTRICITY":0.0001711,"INCLINATION":98.4227,"RA_OF_ASC_NODE":70.9006,"ARG_OF_PERICENTER":109.4203,"MEAN_ANOMALY":275.5371,"EPHEMERIS_TYPE":0,"CLASSIFICATION_TYPE":"U","NORAD_CAT_ID":27424,"ELEMENT_SET_NO":999,"REV_AT_EPOCH":27373,"BSTAR":0.00013203,"MEAN_MOTION_DOT":6.13e-6,"MEAN_MOTION_DDOT":0},{"OBJECT_NAME":"CZ-4B R/B","OBJECT_ID":"2002-024C","EPOCH":"2026-04-12T14:50:33.621216","MEAN_MOTION":14.14553926,"ECCENTRICITY":0.0049071,"INCLINATION":98.8769,"RA_OF_ASC_NODE":155.8427,"ARG_OF_PERICENTER":286.9524,"MEAN_ANOMALY":226.9114,"EPHEMERIS_TYPE":0,"CLASSIFICATION_TYPE":"U","NORAD_CAT_ID":27432,"ELEMENT_SET_NO":999,"REV_AT_EPOCH":23403,"BSTAR":3.261e-5,"MEAN_MOTION_DOT":1.8e-7,"MEAN_MOTION_DDOT":0},{"OBJECT_NAME":"MIDORI II (ADEOS-II)","OBJECT_ID":"2002-056A","EPOCH":"2026-04-12T19:48:59.946048","MEAN_MOTION":14.29311954,"ECCENTRICITY":1.33e-5,"INCLINATION":98.7824,"RA_OF_ASC_NODE":61.5523,"ARG_OF_PERICENTER":122.5802,"MEAN_ANOMALY":237.5392,"EPHEMERIS_TYPE":0,"CLASSIFICATION_TYPE":"U","NORAD_CAT_ID":27597,"ELEMENT_SET_NO":999,"REV_AT_EPOCH":21517,"BSTAR":9.8233e-5,"MEAN_MOTION_DOT":2.05e-6,"MEAN_MOTION_DDOT":0},{"OBJECT_NAME":"H-2A R/B","OBJECT_ID":"2002-056E","EPOCH":"2026-04-12T19:58:09.780096","MEAN_MOTION":14.33785891,"ECCENTRICITY":0.007132,"INCLINATION":98.3257,"RA_OF_ASC_NODE":61.9104,"ARG_OF_PERICENTER":60.3712,"MEAN_ANOMALY":356.6742,"EPHEMERIS_TYPE":0,"CLASSIFICATION_TYPE":"U","NORAD_CAT_ID":27601,"ELEMENT_SET_NO":999,"REV_AT_EPOCH":21900,"BSTAR":9.2918e-5,"MEAN_MOTION_DOT":2.24e-6,"MEAN_MOTION_DDOT":0},{"OBJECT_NAME":"CZ-4B R/B","OBJECT_ID":"2003-049C","EPOCH":"2026-04-12T20:03:41.228640","MEAN_MOTION":14.55051375,"ECCENTRICITY":0.0049082,"INCLINATION":98.6899,"RA_OF_ASC_NODE":99.0877,"ARG_OF_PERICENTER":126.7026,"MEAN_ANOMALY":233.8694,"EPHEMERIS_TYPE":0,"CLASSIFICATION_TYPE":"U","NORAD_CAT_ID":28059,"ELEMENT_SET_NO":999,"REV_AT_EPOCH":19156,"BSTAR":6.7479e-5,"MEAN_MOTION_DOT":2.44e-6,"MEAN_MOTION_DDOT":0},{"OBJECT_NAME":"CZ-2C R/B","OBJECT_ID":"2004-012C","EPOCH":"2026-04-12T17:12:36.824832","MEAN_MOTION":15.68896954,"ECCENTRICITY":0.0013879,"INCLINATION":97.7154,"RA_OF_ASC_NODE":171.3337,"ARG_OF_PERICENTER":180.1436,"MEAN_ANOMALY":179.9823,"EPHEMERIS_TYPE":0,"CLASSIFICATION_TYPE":"U","NORAD_CAT_ID":28222,"ELEMENT_SET_NO":999,"REV_AT_EPOCH":20960,"BSTAR":0.00042361,"MEAN_MOTION_DOT":0.00048906,"MEAN_MOTION_DDOT":0},{"OBJECT_NAME":"SL-16 R/B","OBJECT_ID":"2004-021B","EPOCH":"2026-04-12T14:40:06.244896","MEAN_MOTION":14.14604926,"ECCENTRICITY":0.0006074,"INCLINATION":71.0008,"RA_OF_ASC_NODE":161.3088,"ARG_OF_PERICENTER":326.012,"MEAN_ANOMALY":34.0612,"EPHEMERIS_TYPE":0,"CLASSIFICATION_TYPE":"U","NORAD_CAT_ID":28353,"ELEMENT_SET_NO":999,"REV_AT_EPOCH":12763,"BSTAR":7.6221e-5,"MEAN_MOTION_DOT":9.9e-7,"MEAN_MOTION_DDOT":0},{"OBJECT_NAME":"CZ-4B R/B","OBJECT_ID":"2004-035C","EPOCH":"2026-04-12T14:31:10.204608","MEAN_MOTION":15.29668492,"ECCENTRICITY":0.0030991,"INCLINATION":97.3449,"RA_OF_ASC_NODE":136.4447,"ARG_OF_PERICENTER":205.1683,"MEAN_ANOMALY":154.8049,"EPHEMERIS_TYPE":0,"CLASSIFICATION_TYPE":"U","NORAD_CAT_ID":28415,"ELEMENT_SET_NO":999,"REV_AT_EPOCH":18509,"BSTAR":0.00016951,"MEAN_MOTION_DOT":4.864e-5,"MEAN_MOTION_DDOT":0},{"OBJECT_NAME":"CZ-2C R/B","OBJECT_ID":"2004-046B","EPOCH":"2026-04-12T16:52:22.853856","MEAN_MOTION":14.27006101,"ECCENTRICITY":0.0140475,"INCLINATION":98.1973,"RA_OF_ASC_NODE":15.5671,"ARG_OF_PERICENTER":54.5966,"MEAN_ANOMALY":306.8243,"EPHEMERIS_TYPE":0,"CLASSIFICATION_TYPE":"U","NORAD_CAT_ID":28480,"ELEMENT_SET_NO":999,"REV_AT_EPOCH":11335,"BSTAR":5.4143e-5,"MEAN_MOTION_DOT":1.06e-6,"MEAN_MOTION_DDOT":0},{"OBJECT_NAME":"ARIANE 5 R/B","OBJECT_ID":"2004-049H","EPOCH":"2026-04-12T17:17:23.570016","MEAN_MOTION":14.85333722,"ECCENTRICITY":0.0082964,"INCLINATION":98.2675,"RA_OF_ASC_NODE":272.4634,"ARG_OF_PERICENTER":240.3569,"MEAN_ANOMALY":118.9363,"EPHEMERIS_TYPE":0,"CLASSIFICATION_TYPE":"U","NORAD_CAT_ID":28499,"ELEMENT_SET_NO":999,"REV_AT_EPOCH":15084,"BSTAR":7.7272e-5,"MEAN_MOTION_DOT":6.4e-6,"MEAN_MOTION_DDOT":0},{"OBJECT_NAME":"CZ-2D R/B","OBJECT_ID":"2005-024B","EPOCH":"2026-04-12T19:06:14.948640","MEAN_MOTION":15.63435712,"ECCENTRICITY":0.0002676,"INCLINATION":97.3563,"RA_OF_ASC_NODE":119.2715,"ARG_OF_PERICENTER":217.1883,"MEAN_ANOMALY":142.9191,"EPHEMERIS_TYPE":0,"CLASSIFICATION_TYPE":"U","NORAD_CAT_ID":28738,"ELEMENT_SET_NO":999,"REV_AT_EPOCH":14510,"BSTAR":0.00034433,"MEAN_MOTION_DOT":0.00031704,"MEAN_MOTION_DDOT":0}]
