HELIOS 1B               
1 25977U 99064A   26102.67802274  .00001048  00000+0  12107-3 0  9991
2 25977  98.1660   5.9156 0000992  36.9278 323.2006 14.87832245690312
TERRA                   
1 25994U 99068A   26102.83231248  .00000266  00000+0  63119-4 0  9990
2 25994  97.9524 154.9504 0003631  82.4904  37.6482 14.61051665400060
SL-16 R/B               
1 26070U 00006B   26102.50116272 -.00000253  00000+0 -10434-3 0  9992
2 26070  71.0047  26.7409 0014818 136.1439 224.0863 14.15830211353342
TITAN 4B R/B            
1 26474U 00047B   26102.81579197  .00001812  00000+0  11802-3 0  9998
2 26474  67.9887 304.5282 0041188 355.9524   4.1285 15.09858230398066
ENVISAT                 
1 27386U 02009A   26102.88236779  .00000059  00000+0  33055-4 0  9991
2 27386  98.3781  55.6778 0001155  83.4192 294.3430 14.39049075264099
IDEFIX & ARIANE 42P R/B 
1 27422U 02021B   26102.82626477  .00000158  00000+0  76645-4 0  9990
2 27422  98.5905  41.0329 0012976  86.9242 273.3425 14.31049930248903
AQUA                    
1 27424U 02022A   26102.89721240  .00000613  00000+0  13203-3 0  9990
2 27424  98.4227  70.9006 0001711 109.4203 275.5371 14.62056446273734
CZ-4B R/B               
1 27432U 02024C   26102.61844469  .00000018  00000+0  32610-4 0  9993
2 27432  98.8769 155.8427 0049071 286.9524 226.9114 14.14553926234033
MIDORI II (ADEOS-II)    
1 27597U 02056A   26102.82569382  .00000205  00000+0  98233-4 0  9992
2 27597  98.7824  61.5523 0000133 122.5802 237.5392 14.29311954215175
H-2A R/B                
1 27601U 02056E   26102.83205764  .00000224  00000+0  92918-4 0  9995
2 27601  98.3257  61.9104 0071320  60.3712 356.6742 14.33785891219009
CZ-4B R/B               
1 28059U 03049C   26102.83589385  .00000244  00000+0  67479-4 0  9996
2 28059  98.6899  99.0877 0049082 126.7026 233.8694 14.55051375191565
CZ-2C R/B               
1 28222U 04012C   26102.71709288  .00048906  00000+0  42361-3 0  9991
2 28222  97.7154 171.3337 0013879 180.1436 179.9823 15.68896954209604
SL-16 R/B               
1 28353U 04021B   26102.61118339  .00000099  00000+0  76221-4 0  9990
2 28353  71.0008 161.3088 0006074 326.0120  34.0612 14.14604926127639
CZ-4B R/B               
1 28415U 04035C   26102.60497922  .00004864  00000+0  16951-3 0  9998
2 28415  97.3449 136.4447 0030991 205.1683 154.8049 15.29668492185090
CZ-2C R/B               
1 28480U 04046B   26102.70304229  .00000106  00000+0  54143-4 0  9991
2 28480  98.1973  15.5671 0140475  54.5966 306.8243 14.27006101113353
ARIANE 5 R/B            
1 28499U 04049H   26102.72041169  .00000640  00000+0  77272-4 0  9998
2 28499  98.2675 272.4634 0082964 240.3569 118.9363 14.85333722150844
CZ-2D R/B               
1 28738U 05024B   26102.79600635  .00031704  00000+0  34433-3 0  9990
2 28738  97.3563 119.2715 0002676 217.1883 142.9191 15.63435712145105
